STARLINK-5128           
1 53998U 22125AL  25223.89233353 -.00000914  00000+0 -39310-4 0  9991
2 53998  53.2178  75.6971 0001400  88.1820 271.9332 15.08841245157793
STARLINK-5079           
1 53999U 22125AM  25224.30452441 -.00000882  00000+0 -37367-4 0  9994
2 53999  53.2179  74.0099 0001484  82.2626 277.8535 15.08828496157928
STARLINK-5088           
1 54000U 22125AN  25224.26130265 -.00000717  00000+0 -26971-4 0  9996
2 54000  53.2172  64.4673 0001255  91.9067 268.2069 15.08837776158050
STARLINK-5109           
1 54002U 22125AQ  25223.88590556  .00003493  00000+0  23751-3 0  9992
2 54002  53.2176  65.7052 0001465  88.3095 271.8065 15.08828335157938
STARLINK-5114           
1 54003U 22125AR  25223.89601877  .00000442  00000+0  45843-4 0  9991
2 54003  53.2169  75.7212 0001377  81.8032 278.3116 15.08844990157845
STARLINK-5129           
1 54004U 22125AS  25223.88496166  .00000936  00000+0  76866-4 0  9991
2 54004  53.2171  75.6509 0001306  90.5028 269.6114 15.08840120157797
STARLINK-5135           
1 54005U 22125AT  25223.88864649 -.00001048  00000+0 -47754-4 0  9998
2 54005  53.2168  75.6736 0001245  95.8546 264.2588 15.08840244157840
STARLINK-5096           
1 54006U 22125AU  25223.87391987 -.00001401  00000+0 -69967-4 0  9991
2 54006  53.2166  75.5940 0001280  85.2702 274.8437 15.08830907157789
STARLINK-5132           
1 54007U 22125AV  25223.88127591 -.00000381  00000+0 -58662-5 0  9998
2 54007  53.2176  75.6301 0001369  93.9418 266.1731 15.08840963157796
STARLINK-5145           
1 54008U 22125AW  25223.87851973 -.00000264  00000+0  15056-5 0  9995
2 54008  53.2171  65.6430 0000956  82.4147 277.6954 15.08835265157981
STARLINK-5099           
1 54009U 22125AX  25223.87759150  .00000154  00000+0  27792-4 0  9996
2 54009  53.2168  75.6086 0001254  85.8005 274.3131 15.08837689157790
STARLINK-5127           
1 54010U 22125AY  25224.26859525 -.00000977  00000+0 -43271-4 0  9994
2 54010  53.2177  63.8207 0001571  81.4929 278.6241 15.08841386158042
STARLINK-5124           
1 54011U 22125AZ  25224.25762888  .00003042  00000+0  20918-3 0  9995
2 54011  53.2169  64.4468 0001261  83.4471 276.6665 15.08835048158035
STARLINK-5126           
1 54012U 22125BA  25223.83438869 -.00000831  00000+0 -34113-4 0  9996
2 54012  53.2169  66.0744 0001336  83.1083 277.0061 15.08839027157923
STARLINK-5098           
1 54013U 22125BB  25223.84175354 -.00000176  00000+0  70590-5 0  9996
2 54013  53.2172  66.1199 0001380  90.8642 269.2509 15.08839792157927
STARLINK-5055           
1 54015U 22125BD  25223.83806678  .00000642  00000+0  58409-4 0  9998
2 54015  53.2170  66.0936 0001410  86.4462 273.6692 15.08840895157928
STARLINK-5195           
1 54051U 22136A   25223.99451157  .00000934  00000+0  76794-4 0  9996
2 54051  53.2158 205.7260 0001177  80.6065 279.5060 15.08832456155668
