[{"OBJECT_NAME":"STARLINK-5128","OBJECT_ID":"2022-125AL","EPOCH":"2025-08-11T21:24:57.616992","MEAN_MOTION":15.08841245,"ECCENTRICITY":0.00014,"INCLINATION":53.2178,"RA_OF_ASC_NODE":75.6971,"ARG_OF_PERICENTER":88.182,"MEAN_ANOMALY":271.9332,"EPHEMERIS_TYPE":0,"CLASSIFICATION_TYPE":"U","NORAD_CAT_ID":53998,"ELEMENT_SET_NO":999,"REV_AT_EPOCH":15779,"BSTAR":-3.931e-5,"MEAN_MOTION_DOT":-9.14e-6,"MEAN_MOTION_DDOT":0},{"OBJECT_NAME":"STARLINK-5079","OBJECT_ID":"2022-125AM","EPOCH":"2025-08-12T07:18:30.909024","MEAN_MOTION":15.08828496,"ECCENTRICITY":0.0001484,"INCLINATION":53.2179,"RA_OF_ASC_NODE":74.0099,"ARG_OF_PERICENTER":82.2626,"MEAN_ANOMALY":277.8535,"EPHEMERIS_TYPE":0,"CLASSIFICATION_TYPE":"U","NORAD_CAT_ID":53999,"ELEMENT_SET_NO":999,"REV_AT_EPOCH":15792,"BSTAR":-3.7367e-5,"MEAN_MOTION_DOT":-8.82e-6,"MEAN_MOTION_DDOT":0},{"OBJECT_NAME":"STARLINK-5088","OBJECT_ID":"2022-125AN","EPOCH":"2025-08-12T06:16:16.548960","MEAN_MOTION":15.08837776,"ECCENTRICITY":0.0001255,"INCLINATION":53.2172,"RA_OF_ASC_NODE":64.4673,"ARG_OF_PERICENTER":91.9067,"MEAN_ANOMALY":268.2069,"EPHEMERIS_TYPE":0,"CLASSIFICATION_TYPE":"U","NORAD_CAT_ID":54000,"ELEMENT_SET_NO":999,"REV_AT_EPOCH":15805,"BSTAR":-2.6971e-5,"MEAN_MOTION_DOT":-7.17e-6,"MEAN_MOTION_DDOT":0},{"OBJECT_NAME":"STARLINK-5109","OBJECT_ID":"2022-125AQ","EPOCH":"2025-08-11T21:15:42.240384","MEAN_MOTION":15.08828335,"ECCENTRICITY":0.0001465,"INCLINATION":53.2176,"RA_OF_ASC_NODE":65.7052,"ARG_OF_PERICENTER":88.3095,"MEAN_ANOMALY":271.8065,"EPHEMERIS_TYPE":0,"CLASSIFICATION_TYPE":"U","NORAD_CAT_ID":54002,"ELEMENT_SET_NO":999,"REV_AT_EPOCH":15793,"BSTAR":0.00023751,"MEAN_MOTION_DOT":3.493e-5,"MEAN_MOTION_DDOT":0},{"OBJECT_NAME":"STARLINK-5114","OBJECT_ID":"2022-125AR","EPOCH":"2025-08-11T21:30:16.021728","MEAN_MOTION":15.0884499,"ECCENTRICITY":0.0001377,"INCLINATION":53.2169,"RA_OF_ASC_NODE":75.7212,"ARG_OF_PERICENTER":81.8032,"MEAN_ANOMALY":278.3116,"EPHEMERIS_TYPE":0,"CLASSIFICATION_TYPE":"U","NORAD_CAT_ID":54003,"ELEMENT_SET_NO":999,"REV_AT_EPOCH":15784,"BSTAR":4.5843e-5,"MEAN_MOTION_DOT":4.42e-6,"MEAN_MOTION_DDOT":0},{"OBJECT_NAME":"STARLINK-5129","OBJECT_ID":"2022-125AS","EPOCH":"2025-08-11T21:14:20.687424","MEAN_MOTION":15.0884012,"ECCENTRICITY":0.0001306,"INCLINATION":53.2171,"RA_OF_ASC_NODE":75.6509,"ARG_OF_PERICENTER":90.5028,"MEAN_ANOMALY":269.6114,"EPHEMERIS_TYPE":0,"CLASSIFICATION_TYPE":"U","NORAD_CAT_ID":54004,"ELEMENT_SET_NO":999,"REV_AT_EPOCH":15779,"BSTAR":7.6866e-5,"MEAN_MOTION_DOT":9.36e-6,"MEAN_MOTION_DDOT":0},{"OBJECT_NAME":"STARLINK-5135","OBJECT_ID":"2022-125AT","EPOCH":"2025-08-11T21:19:39.056736","MEAN_MOTION":15.08840244,"ECCENTRICITY":0.0001245,"INCLINATION":53.2168,"RA_OF_ASC_NODE":75.6736,"ARG_OF_PERICENTER":95.8546,"MEAN_ANOMALY":264.2588,"EPHEMERIS_TYPE":0,"CLASSIFICATION_TYPE":"U","NORAD_CAT_ID":54005,"ELEMENT_SET_NO":999,"REV_AT_EPOCH":15784,"BSTAR":-4.7754e-5,"MEAN_MOTION_DOT":-1.048e-5,"MEAN_MOTION_DDOT":0},{"OBJECT_NAME":"STARLINK-5096","OBJECT_ID":"2022-125AU","EPOCH":"2025-08-11T20:58:26.676768","MEAN_MOTION":15.08830907,"ECCENTRICITY":0.000128,"INCLINATION":53.2166,"RA_OF_ASC_NODE":75.594,"ARG_OF_PERICENTER":85.2702,"MEAN_ANOMALY":274.8437,"EPHEMERIS_TYPE":0,"CLASSIFICATION_TYPE":"U","NORAD_CAT_ID":54006,"ELEMENT_SET_NO":999,"REV_AT_EPOCH":15778,"BSTAR":-6.9967e-5,"MEAN_MOTION_DOT":-1.401e-5,"MEAN_MOTION_DDOT":0},{"OBJECT_NAME":"STARLINK-5132","OBJECT_ID":"2022-125AV","EPOCH":"2025-08-11T21:09:02.238624","MEAN_MOTION":15.08840963,"ECCENTRICITY":0.0001369,"INCLINATION":53.2176,"RA_OF_ASC_NODE":75.6301,"ARG_OF_PERICENTER":93.9418,"MEAN_ANOMALY":266.1731,"EPHEMERIS_TYPE":0,"CLASSIFICATION_TYPE":"U","NORAD_CAT_ID":54007,"ELEMENT_SET_NO":999,"REV_AT_EPOCH":15779,"BSTAR":-5.8662e-6,"MEAN_MOTION_DOT":-3.81e-6,"MEAN_MOTION_DDOT":0},{"OBJECT_NAME":"STARLINK-5145","OBJECT_ID":"2022-125AW","EPOCH":"2025-08-11T21:05:04.104672","MEAN_MOTION":15.08835265,"ECCENTRICITY":9.56e-5,"INCLINATION":53.2171,"RA_OF_ASC_NODE":65.643,"ARG_OF_PERICENTER":82.4147,"MEAN_ANOMALY":277.6954,"EPHEMERIS_TYPE":0,"CLASSIFICATION_TYPE":"U","NORAD_CAT_ID":54008,"ELEMENT_SET_NO":999,"REV_AT_EPOCH":15798,"BSTAR":1.5056e-6,"MEAN_MOTION_DOT":-2.64e-6,"MEAN_MOTION_DDOT":0},{"OBJECT_NAME":"STARLINK-5099","OBJECT_ID":"2022-125AX","EPOCH":"2025-08-11T21:03:43.905600","MEAN_MOTION":15.08837689,"ECCENTRICITY":0.0001254,"INCLINATION":53.2168,"RA_OF_ASC_NODE":75.6086,"ARG_OF_PERICENTER":85.8005,"MEAN_ANOMALY":274.3131,"EPHEMERIS_TYPE":0,"CLASSIFICATION_TYPE":"U","NORAD_CAT_ID":54009,"ELEMENT_SET_NO":999,"REV_AT_EPOCH":15779,"BSTAR":2.7792e-5,"MEAN_MOTION_DOT":1.54e-6,"MEAN_MOTION_DDOT":0},{"OBJECT_NAME":"STARLINK-5127","OBJECT_ID":"2022-125AY","EPOCH":"2025-08-12T06:26:46.629600","MEAN_MOTION":15.08841386,"ECCENTRICITY":0.0001571,"INCLINATION":53.2177,"RA_OF_ASC_NODE":63.8207,"ARG_OF_PERICENTER":81.4929,"MEAN_ANOMALY":278.6241,"EPHEMERIS_TYPE":0,"CLASSIFICATION_TYPE":"U","NORAD_CAT_ID":54010,"ELEMENT_SET_NO":999,"REV_AT_EPOCH":15804,"BSTAR":-4.3271e-5,"MEAN_MOTION_DOT":-9.77e-6,"MEAN_MOTION_DDOT":0},{"OBJECT_NAME":"STARLINK-5124","OBJECT_ID":"2022-125AZ","EPOCH":"2025-08-12T06:10:59.135232","MEAN_MOTION":15.08835048,"ECCENTRICITY":0.0001261,"INCLINATION":53.2169,"RA_OF_ASC_NODE":64.4468,"ARG_OF_PERICENTER":83.4471,"MEAN_ANOMALY":276.6665,"EPHEMERIS_TYPE":0,"CLASSIFICATION_TYPE":"U","NORAD_CAT_ID":54011,"ELEMENT_SET_NO":999,"REV_AT_EPOCH":15803,"BSTAR":0.00020918,"MEAN_MOTION_DOT":3.042e-5,"MEAN_MOTION_DDOT":0},{"OBJECT_NAME":"STARLINK-5126","OBJECT_ID":"2022-125BA","EPOCH":"2025-08-11T20:01:31.182816","MEAN_MOTION":15.08839027,"ECCENTRICITY":0.0001336,"INCLINATION":53.2169,"RA_OF_ASC_NODE":66.0744,"ARG_OF_PERICENTER":83.1083,"MEAN_ANOMALY":277.0061,"EPHEMERIS_TYPE":0,"CLASSIFICATION_TYPE":"U","NORAD_CAT_ID":54012,"ELEMENT_SET_NO":999,"REV_AT_EPOCH":15792,"BSTAR":-3.4113e-5,"MEAN_MOTION_DOT":-8.31e-6,"MEAN_MOTION_DDOT":0},{"OBJECT_NAME":"STARLINK-5098","OBJECT_ID":"2022-125BB","EPOCH":"2025-08-11T20:12:07.505856","MEAN_MOTION":15.08839792,"ECCENTRICITY":0.000138,"INCLINATION":53.2172,"RA_OF_ASC_NODE":66.1199,"ARG_OF_PERICENTER":90.8642,"MEAN_ANOMALY":269.2509,"EPHEMERIS_TYPE":0,"CLASSIFICATION_TYPE":"U","NORAD_CAT_ID":54013,"ELEMENT_SET_NO":999,"REV_AT_EPOCH":15792,"BSTAR":7.059e-6,"MEAN_MOTION_DOT":-1.76e-6,"MEAN_MOTION_DDOT":0},{"OBJECT_NAME":"STARLINK-5055","OBJECT_ID":"2022-125BD","EPOCH":"2025-08-11T20:06:48.969792","MEAN_MOTION":15.08840895,"ECCENTRICITY":0.000141,"INCLINATION":53.217,"RA_OF_ASC_NODE":66.0936,"ARG_OF_PERICENTER":86.4462,"MEAN_ANOMALY":273.6692,"EPHEMERIS_TYPE":0,"CLASSIFICATION_TYPE":"U","NORAD_CAT_ID":54015,"ELEMENT_SET_NO":999,"REV_AT_EPOCH":15792,"BSTAR":5.8409e-5,"MEAN_MOTION_DOT":6.42e-6,"MEAN_MOTION_DDOT":0},{"OBJECT_NAME":"STARLINK-5195","OBJECT_ID":"2022-136A","EPOCH":"2025-08-11T23:52:05.799648","MEAN_MOTION":15.08832456,"ECCENTRICITY":0.0001177,"INCLINATION":53.2158,"RA_OF_ASC_NODE":205.726,"ARG_OF_PERICENTER":80.6065,"MEAN_ANOMALY":279.506,"EPHEMERIS_TYPE":0,"CLASSIFICATION_TYPE":"U","NORAD_CAT_ID":54051,"ELEMENT_SET_NO":999,"REV_AT_EPOCH":15566,"BSTAR":7.6794e-5,"MEAN_MOTION_DOT":9.34e-6,"MEAN_MOTION_DDOT":0}]
